start=new Date('2023-04-29T00:00:00.000Z').valueOf();
sats=[{"PERIAPSIS":"546.224","TLE_LINE2":"2 48365  53.0552  13.4533 0001337 101.9373 258.1766 15.06420632109403","REF_FRAME":"TEME","INCLINATION":"53.0552","CLASSIFICATION_TYPE":"U","MEAN_MOTION":"15.06420632","SEMIMAJOR_AXIS":"6925.285","SITE":"AFETR","OBJECT_ID":"2021-038N","TLE_LINE1":"1 48365U 21038N   23118.43175375  .00019733  00000-0  13392-2 0  9993","ARG_OF_PERICENTER":"101.9373","TIME_SYSTEM":"UTC","APOAPSIS":"548.076","DECAY_DATE":null,"BSTAR":"0.00133920000000","GP_ID":"230883912","MEAN_ANOMALY":"258.1766","RA_OF_ASC_NODE":"13.4533","CENTER_NAME":"EARTH","FILE":"3895770","MEAN_MOTION_DOT":"0.00019733","LAUNCH_DATE":"2021-05-04","OBJECT_NAME":"STARLINK-2608","COUNTRY_CODE":"US","MEAN_MOTION_DDOT":"0.0000000000000","ECCENTRICITY":"0.00013370","NORAD_CAT_ID":"48365","OBJECT_TYPE":"PAYLOAD","EPOCH":"2023-04-28T10:21:43.524000","RCS_SIZE":"LARGE","MEAN_ELEMENT_THEORY":"SGP4","ELEMENT_SET_NO":"999","REV_AT_EPOCH":"10940","EPHEMERIS_TYPE":"0","PERIOD":"95.591"},{"PERIOD":"95.593","ELEMENT_SET_NO":"999","REV_AT_EPOCH":"11012","EPHEMERIS_TYPE":"0","RCS_SIZE":"LARGE","MEAN_ELEMENT_THEORY":"SGP4","NORAD_CAT_ID":"48366","OBJECT_TYPE":"PAYLOAD","EPOCH":"2023-04-28T21:12:34.367040","MEAN_MOTION_DDOT":"0.0000000000000","ECCENTRICITY":"0.00016820","COUNTRY_CODE":"US","LAUNCH_DATE":"2021-05-04","OBJECT_NAME":"STARLINK-2631","RA_OF_ASC_NODE":"6.4232","CENTER_NAME":"EARTH","MEAN_MOTION_DOT":"0.00013178","FILE":"3895885","MEAN_ANOMALY":"286.0677","GP_ID":"230892432","BSTAR":"0.00090208000000","TIME_SYSTEM":"UTC","APOAPSIS":"548.402","DECAY_DATE":null,"OBJECT_ID":"2021-038P","ARG_OF_PERICENTER":"74.0497","TLE_LINE1":"1 48366U 21038P   23118.88373110  .00013178  00000-0  90208-3 0  9999","SITE":"AFETR","MEAN_MOTION":"15.06392234","SEMIMAJOR_AXIS":"6925.372","TLE_LINE2":"2 48366  53.0555   6.4232 0001682  74.0497 286.0677 15.06392234110123","PERIAPSIS":"546.073","REF_FRAME":"TEME","INCLINATION":"53.0555","CLASSIFICATION_TYPE":"U"},{"APOAPSIS":"548.504","DECAY_DATE":null,"TIME_SYSTEM":"UTC","BSTAR":"0.00052564000000","GP_ID":"230892325","MEAN_ANOMALY":"263.8988","CLASSIFICATION_TYPE":"U","TLE_LINE2":"2 48367  53.0553   6.4383 0001877  96.2214 263.8988 15.06403197110127","REF_FRAME":"TEME","PERIAPSIS":"545.904","INCLINATION":"53.0553","SEMIMAJOR_AXIS":"6925.339","MEAN_MOTION":"15.06403197","SITE":"AFETR","TLE_LINE1":"1 48367U 21038Q   23118.88006822  .00007557  00000-0  52564-3 0  9990","ARG_OF_PERICENTER":"96.2214","OBJECT_ID":"2021-038Q","OBJECT_TYPE":"PAYLOAD","EPOCH":"2023-04-28T21:07:17.894208","NORAD_CAT_ID":"48367","MEAN_ELEMENT_THEORY":"SGP4","RCS_SIZE":"LARGE","EPHEMERIS_TYPE":"0","ELEMENT_SET_NO":"999","REV_AT_EPOCH":"11012","PERIOD":"95.592","MEAN_MOTION_DOT":"0.00007557","FILE":"3895880","RA_OF_ASC_NODE":"6.4383","CENTER_NAME":"EARTH","LAUNCH_DATE":"2021-05-04","OBJECT_NAME":"STARLINK-2643","COUNTRY_CODE":"US","ECCENTRICITY":"0.00018770","MEAN_MOTION_DDOT":"0.0000000000000"},{"CLASSIFICATION_TYPE":"U","PERIAPSIS":"546.353","TLE_LINE2":"2 48368  53.0538   8.9039 0001062  70.8390 289.2713 15.06440920109463","REF_FRAME":"TEME","INCLINATION":"53.0538","SEMIMAJOR_AXIS":"6925.223","MEAN_MOTION":"15.06440920","SITE":"AFETR","TLE_LINE1":"1 48368U 21038R   23118.39352651  .00005555  00000-0  39111-3 0  9990","ARG_OF_PERICENTER":"70.8390","OBJECT_ID":"2021-038R","DECAY_DATE":null,"APOAPSIS":"547.824","TIME_SYSTEM":"UTC","BSTAR":"0.00039111000000","GP_ID":"230884162","MEAN_ANOMALY":"289.2713","FILE":"3895770","MEAN_MOTION_DOT":"0.00005555","RA_OF_ASC_NODE":"8.9039","CENTER_NAME":"EARTH","LAUNCH_DATE":"2021-05-04","OBJECT_NAME":"STARLINK-2623","COUNTRY_CODE":"US","ECCENTRICITY":"0.00010620","MEAN_MOTION_DDOT":"0.0000000000000","OBJECT_TYPE":"PAYLOAD","EPOCH":"2023-04-28T09:26:40.690464","NORAD_CAT_ID":"48368","MEAN_ELEMENT_THEORY":"SGP4","RCS_SIZE":"LARGE","EPHEMERIS_TYPE":"0","ELEMENT_SET_NO":"999","REV_AT_EPOCH":"10946","PERIOD":"95.590"},{"BSTAR":"0.00010547000000","APOAPSIS":"548.227","DECAY_DATE":null,"TIME_SYSTEM":"UTC","MEAN_ANOMALY":"257.8454","GP_ID":"230892510","SEMIMAJOR_AXIS":"6925.468","MEAN_MOTION":"15.06361009","CLASSIFICATION_TYPE":"U","TLE_LINE2":"2 48369  53.0545   6.4573 0001291 102.2679 257.8454 15.06361009110120","PERIAPSIS":"546.439","REF_FRAME":"TEME","INCLINATION":"53.0545","ARG_OF_PERICENTER":"102.2679","TLE_LINE1":"1 48369U 21038S   23118.87632063  .00001288  00000-0  10547-3 0  9993","OBJECT_ID":"2021-038S","SITE":"AFETR","MEAN_ELEMENT_THEORY":"SGP4","RCS_SIZE":"LARGE","OBJECT_TYPE":"PAYLOAD","EPOCH":"2023-04-28T21:01:54.102432","NORAD_CAT_ID":"48369","PERIOD":"95.595","EPHEMERIS_TYPE":"0","ELEMENT_SET_NO":"999","REV_AT_EPOCH":"11012","LAUNCH_DATE":"2021-05-04","OBJECT_NAME":"STARLINK-2641","MEAN_MOTION_DOT":"0.00001288","FILE":"3895891","RA_OF_ASC_NODE":"6.4573","CENTER_NAME":"EARTH","ECCENTRICITY":"0.00012910","MEAN_MOTION_DDOT":"0.0000000000000","COUNTRY_CODE":"US"},{"MEAN_MOTION":"15.06373165","SEMIMAJOR_AXIS":"6925.431","REF_FRAME":"TEME","TLE_LINE2":"2 48370  53.0542   6.4718 0001461  72.2461 287.8687 15.06373165110121","PERIAPSIS":"546.284","INCLINATION":"53.0542","CLASSIFICATION_TYPE":"U","OBJECT_ID":"2021-038T","TLE_LINE1":"1 48370U 21038T   23118.87265325  .00003197  00000-0  23357-3 0  9992","ARG_OF_PERICENTER":"72.2461","SITE":"AFETR","BSTAR":"0.00023357000000","TIME_SYSTEM":"UTC","DECAY_DATE":null,"APOAPSIS":"548.308","MEAN_ANOMALY":"287.8687","GP_ID":"230892530","LAUNCH_DATE":"2021-05-04","OBJECT_NAME":"STARLINK-2621","RA_OF_ASC_NODE":"6.4718","CENTER_NAME":"EARTH","FILE":"3895890","MEAN_MOTION_DOT":"0.00003197","MEAN_MOTION_DDOT":"0.0000000000000","ECCENTRICITY":"0.00014610","COUNTRY_CODE":"US","RCS_SIZE":"LARGE","MEAN_ELEMENT_THEORY":"SGP4","NORAD_CAT_ID":"48370","OBJECT_TYPE":"PAYLOAD","EPOCH":"2023-04-28T20:56:37.240800","PERIOD":"95.594","ELEMENT_SET_NO":"999","REV_AT_EPOCH":"11012","EPHEMERIS_TYPE":"0"},{"RCS_SIZE":"LARGE","MEAN_ELEMENT_THEORY":"SGP4","NORAD_CAT_ID":"48371","EPOCH":"2023-04-28T09:42:32.262912","OBJECT_TYPE":"PAYLOAD","PERIOD":"95.590","REV_AT_EPOCH":"10946","ELEMENT_SET_NO":"999","EPHEMERIS_TYPE":"0","OBJECT_NAME":"STARLINK-2589","LAUNCH_DATE":"2021-05-04","CENTER_NAME":"EARTH","RA_OF_ASC_NODE":"8.5763","FILE":"3895770","MEAN_MOTION_DOT":"-0.00000101","MEAN_MOTION_DDOT":"0.0000000000000","ECCENTRICITY":"0.00013010","COUNTRY_CODE":"US","BSTAR":"0.00001210600000","TIME_SYSTEM":"UTC","APOAPSIS":"547.991","DECAY_DATE":null,"MEAN_ANOMALY":"276.1258","GP_ID":"230885414","MEAN_MOTION":"15.06440402","SEMIMAJOR_AXIS":"6925.225","INCLINATION":"53.0555","REF_FRAME":"TEME","TLE_LINE2":"2 48371  53.0555   8.5763 0001301  83.9880 276.1258 15.06440402109465","PERIAPSIS":"546.189","CLASSIFICATION_TYPE":"U","OBJECT_ID":"2021-038U","TLE_LINE1":"1 48371U 21038U   23118.40454008 -.00000101  00000-0  12106-4 0  9994","ARG_OF_PERICENTER":"83.9880","SITE":"AFETR"},{"ECCENTRICITY":"0.00011000","MEAN_MOTION_DDOT":"0.0000000000000","COUNTRY_CODE":"US","OBJECT_NAME":"STARLINK-2572","LAUNCH_DATE":"2021-05-04","MEAN_MOTION_DOT":"-0.00000213","FILE":"3895770","CENTER_NAME":"EARTH","RA_OF_ASC_NODE":"8.5919","PERIOD":"95.591","EPHEMERIS_TYPE":"0","REV_AT_EPOCH":"10946","ELEMENT_SET_NO":"999","MEAN_ELEMENT_THEORY":"SGP4","RCS_SIZE":"LARGE","EPOCH":"2023-04-28T09:37:14.349792","OBJECT_TYPE":"PAYLOAD","NORAD_CAT_ID":"48372","TLE_LINE1":"1 48372U 21038V   23118.40086053 -.00000213  00000-0  45685-5 0  9999","ARG_OF_PERICENTER":"103.8325","OBJECT_ID":"2021-038V","SITE":"AFETR","SEMIMAJOR_AXIS":"6925.294","MEAN_MOTION":"15.06417657","CLASSIFICATION_TYPE":"U","INCLINATION":"53.0559","TLE_LINE2":"2 48372  53.0559   8.5919 0001100 103.8325 256.2787 15.06417657109468","PERIAPSIS":"546.398","REF_FRAME":"TEME","MEAN_ANOMALY":"256.2787","GP_ID":"230883663","BSTAR":"0.00000456850000","APOAPSIS":"547.921","DECAY_DATE":null,"TIME_SYSTEM":"UTC"},{"OBJECT_NAME":"STARLINK-2609","LAUNCH_DATE":"2021-05-04","CENTER_NAME":"EARTH","RA_OF_ASC_NODE":"8.6096","MEAN_MOTION_DOT":"0.00010678","FILE":"3895770","MEAN_MOTION_DDOT":"0.0000000000000","ECCENTRICITY":"0.00019440","COUNTRY_CODE":"US","RCS_SIZE":"LARGE","MEAN_ELEMENT_THEORY":"SGP4","NORAD_CAT_ID":"48373","EPOCH":"2023-04-28T09:31:56.047008","OBJECT_TYPE":"PAYLOAD","PERIOD":"95.587","REV_AT_EPOCH":"10946","ELEMENT_SET_NO":"999","EPHEMERIS_TYPE":"0","MEAN_MOTION":"15.06481611","SEMIMAJOR_AXIS":"6925.098","INCLINATION":"53.0562","REF_FRAME":"TEME","TLE_LINE2":"2 48373  53.0562   8.6096 0001944  91.7964 268.3248 15.06481611109467","PERIAPSIS":"545.617","CLASSIFICATION_TYPE":"U","OBJECT_ID":"2021-038W","TLE_LINE1":"1 48373U 21038W   23118.39717647  .00010678  00000-0  73306-3 0  9992","ARG_OF_PERICENTER":"91.7964","SITE":"AFETR","BSTAR":"0.00073306000000","TIME_SYSTEM":"UTC","DECAY_DATE":null,"APOAPSIS":"548.310","MEAN_ANOMALY":"268.3248","GP_ID":"230883913"},{"GP_ID":"230885164","MEAN_ANOMALY":"270.5053","APOAPSIS":"548.025","DECAY_DATE":null,"TIME_SYSTEM":"UTC","BSTAR":"-0.00154650000000","SITE":"AFETR","TLE_LINE1":"1 48374U 21038X   23118.39254952 -.00023252  00000-0 -15465-2 0  9993","ARG_OF_PERICENTER":"89.6078","OBJECT_ID":"2021-038X","CLASSIFICATION_TYPE":"U","TLE_LINE2":"2 48374  53.0546   8.6178 0001245  89.6078 270.5053 15.06416669109467","REF_FRAME":"TEME","PERIAPSIS":"546.300","INCLINATION":"53.0546","SEMIMAJOR_AXIS":"6925.297","MEAN_MOTION":"15.06416669","EPHEMERIS_TYPE":"0","ELEMENT_SET_NO":"999","REV_AT_EPOCH":"10946","PERIOD":"95.591","OBJECT_TYPE":"PAYLOAD","EPOCH":"2023-04-28T09:25:16.278528","NORAD_CAT_ID":"48374","MEAN_ELEMENT_THEORY":"SGP4","RCS_SIZE":"LARGE","COUNTRY_CODE":"US","ECCENTRICITY":"0.00012450","MEAN_MOTION_DDOT":"0.0000000000000","FILE":"3895770","MEAN_MOTION_DOT":"-0.00023252","RA_OF_ASC_NODE":"8.6178","CENTER_NAME":"EARTH","LAUNCH_DATE":"2021-05-04","OBJECT_NAME":"STARLINK-2604"}];
